CCSDS_OMM_VERS = 2.0
CREATION_DATE  = 
ORIGINATOR     = 

OBJECT_NAME    = SL-14 R/B
OBJECT_ID      = 1986-046B
CENTER_NAME    = EARTH
REF_FRAME      = TEME
TIME_SYSTEM    = UTC
MEAN_ELEMENT_THEORY = SGP/SGP4

EPOCH          = 2025-12-20T17:31:41.922048
MEAN_MOTION    = 14.85492485
ECCENTRICITY   = .0024322
INCLINATION    = 82.4816
RA_OF_ASC_NODE = 154.7676
ARG_OF_PERICENTER = 126.8946
MEAN_ANOMALY   = 233.4504

EPHEMERIS_TYPE = 0
CLASSIFICATION_TYPE = U
NORAD_CAT_ID   = 16792
ELEMENT_SET_NO = 999
REV_AT_EPOCH   = 11468
BSTAR          = .41846E-4
MEAN_MOTION_DOT = .388E-5
MEAN_MOTION_DDOT = 0

CCSDS_OMM_VERS = 2.0
CREATION_DATE  = 
ORIGINATOR     = 

OBJECT_NAME    = SL-14 R/B
OBJECT_ID      = 1986-055B
CENTER_NAME    = EARTH
REF_FRAME      = TEME
TIME_SYSTEM    = UTC
MEAN_ELEMENT_THEORY = SGP/SGP4

EPOCH          = 2025-12-20T20:29:04.186752
MEAN_MOTION    = 14.85537764
ECCENTRICITY   = .0017733
INCLINATION    = 82.5197
RA_OF_ASC_NODE = 200.7486
ARG_OF_PERICENTER = 230.3631
MEAN_ANOMALY   = 140.0652

EPHEMERIS_TYPE = 0
CLASSIFICATION_TYPE = U
NORAD_CAT_ID   = 16882
ELEMENT_SET_NO = 999
REV_AT_EPOCH   = 10766
BSTAR          = .3617E-4
MEAN_MOTION_DOT = .337E-5
MEAN_MOTION_DDOT = 0

CCSDS_OMM_VERS = 2.0
CREATION_DATE  = 
ORIGINATOR     = 

OBJECT_NAME    = AJISAI (EGS)
OBJECT_ID      = 1986-061A
CENTER_NAME    = EARTH
REF_FRAME      = TEME
TIME_SYSTEM    = UTC
MEAN_ELEMENT_THEORY = SGP/SGP4

EPOCH          = 2025-12-20T20:18:19.939104
MEAN_MOTION    = 12.44514351
ECCENTRICITY   = .0011314
INCLINATION    = 50.0113
RA_OF_ASC_NODE = 335.7910
ARG_OF_PERICENTER = 86.2215
MEAN_ANOMALY   = 307.3099

EPHEMERIS_TYPE = 0
CLASSIFICATION_TYPE = U
NORAD_CAT_ID   = 16908
ELEMENT_SET_NO = 999
REV_AT_EPOCH   = 45818
BSTAR          = -.95207E-5
MEAN_MOTION_DOT = -.99E-6
MEAN_MOTION_DDOT = 0

CCSDS_OMM_VERS = 2.0
CREATION_DATE  = 
ORIGINATOR     = 

OBJECT_NAME    = COSMOS 1812
OBJECT_ID      = 1987-003A
CENTER_NAME    = EARTH
REF_FRAME      = TEME
TIME_SYSTEM    = UTC
MEAN_ELEMENT_THEORY = SGP/SGP4

EPOCH          = 2025-12-20T19:01:22.543392
MEAN_MOTION    = 15.77052474
ECCENTRICITY   = .0006734
INCLINATION    = 82.4877
RA_OF_ASC_NODE = 283.2880
ARG_OF_PERICENTER = 73.4140
MEAN_ANOMALY   = 286.7865

EPHEMERIS_TYPE = 0
CLASSIFICATION_TYPE = U
NORAD_CAT_ID   = 17295
ELEMENT_SET_NO = 999
REV_AT_EPOCH   = 13192
BSTAR          = .49004E-3
MEAN_MOTION_DOT = .80138E-3
MEAN_MOTION_DDOT = 0

CCSDS_OMM_VERS = 2.0
CREATION_DATE  = 
ORIGINATOR     = 

OBJECT_NAME    = SL-14 R/B
OBJECT_ID      = 1987-024B
CENTER_NAME    = EARTH
REF_FRAME      = TEME
TIME_SYSTEM    = UTC
MEAN_ELEMENT_THEORY = SGP/SGP4

EPOCH          = 2025-12-20T17:24:04.250016
MEAN_MOTION    = 14.86031227
ECCENTRICITY   = .0018779
INCLINATION    = 82.5276
RA_OF_ASC_NODE = 166.9529
ARG_OF_PERICENTER = 157.9683
MEAN_ANOMALY   = 202.2345

EPHEMERIS_TYPE = 0
CLASSIFICATION_TYPE = U
NORAD_CAT_ID   = 17567
ELEMENT_SET_NO = 999
REV_AT_EPOCH   = 7640
BSTAR          = .3873E-4
MEAN_MOTION_DOT = .364E-5
MEAN_MOTION_DDOT = 0

CCSDS_OMM_VERS = 2.0
CREATION_DATE  = 
ORIGINATOR     = 

OBJECT_NAME    = COSMOS 1833
OBJECT_ID      = 1987-027A
CENTER_NAME    = EARTH
REF_FRAME      = TEME
TIME_SYSTEM    = UTC
MEAN_ELEMENT_THEORY = SGP/SGP4

EPOCH          = 2025-12-20T18:54:39.946176
MEAN_MOTION    = 14.13025386
ECCENTRICITY   = .0022869
INCLINATION    = 70.9151
RA_OF_ASC_NODE = 131.8583
ARG_OF_PERICENTER = 320.4563
MEAN_ANOMALY   = 39.4888

EPHEMERIS_TYPE = 0
CLASSIFICATION_TYPE = U
NORAD_CAT_ID   = 17589
ELEMENT_SET_NO = 999
REV_AT_EPOCH   = 99916
BSTAR          = .13756E-3
MEAN_MOTION_DOT = .209E-5
MEAN_MOTION_DDOT = 0

CCSDS_OMM_VERS = 2.0
CREATION_DATE  = 
ORIGINATOR     = 

OBJECT_NAME    = SL-16 R/B
OBJECT_ID      = 1987-027B
CENTER_NAME    = EARTH
REF_FRAME      = TEME
TIME_SYSTEM    = UTC
MEAN_ELEMENT_THEORY = SGP/SGP4

EPOCH          = 2025-12-20T15:17:51.729792
MEAN_MOTION    = 14.17155332
ECCENTRICITY   = .000726
INCLINATION    = 71.0038
RA_OF_ASC_NODE = 83.0769
ARG_OF_PERICENTER = 251.2920
MEAN_ANOMALY   = 108.7416

EPHEMERIS_TYPE = 0
CLASSIFICATION_TYPE = U
NORAD_CAT_ID   = 17590
ELEMENT_SET_NO = 999
REV_AT_EPOCH   = 414
BSTAR          = .11716E-3
MEAN_MOTION_DOT = .188E-5
MEAN_MOTION_DDOT = 0

CCSDS_OMM_VERS = 2.0
CREATION_DATE  = 
ORIGINATOR     = 

OBJECT_NAME    = SL-14 R/B
OBJECT_ID      = 1987-038B
CENTER_NAME    = EARTH
REF_FRAME      = TEME
TIME_SYSTEM    = UTC
MEAN_ELEMENT_THEORY = SGP/SGP4

EPOCH          = 2025-12-20T09:50:18.682080
MEAN_MOTION    = 14.85267600
ECCENTRICITY   = .00207929
INCLINATION    = 82.5012
RA_OF_ASC_NODE = 11.4761
ARG_OF_PERICENTER = 68.5910
MEAN_ANOMALY   = 291.7522

EPHEMERIS_TYPE = 0
CLASSIFICATION_TYPE = U
NORAD_CAT_ID   = 17912
ELEMENT_SET_NO = 999
REV_AT_EPOCH   = 6746
BSTAR          = .37476493E-4
MEAN_MOTION_DOT = .347E-5
MEAN_MOTION_DDOT = 0

CCSDS_OMM_VERS = 2.0
CREATION_DATE  = 
ORIGINATOR     = 

OBJECT_NAME    = COSMOS 1844
OBJECT_ID      = 1987-041A
CENTER_NAME    = EARTH
REF_FRAME      = TEME
TIME_SYSTEM    = UTC
MEAN_ELEMENT_THEORY = SGP/SGP4

EPOCH          = 2025-12-20T20:03:29.858400
MEAN_MOTION    = 14.14528338
ECCENTRICITY   = .0029802
INCLINATION    = 70.8964
RA_OF_ASC_NODE = 200.4951
ARG_OF_PERICENTER = 144.2841
MEAN_ANOMALY   = 216.0283

EPHEMERIS_TYPE = 0
CLASSIFICATION_TYPE = U
NORAD_CAT_ID   = 17973
ELEMENT_SET_NO = 999
REV_AT_EPOCH   = 99243
BSTAR          = .14923E-3
MEAN_MOTION_DOT = .239E-5
MEAN_MOTION_DDOT = 0

CCSDS_OMM_VERS = 2.0
CREATION_DATE  = 
ORIGINATOR     = 

OBJECT_NAME    = SL-14 R/B
OBJECT_ID      = 1987-055B
CENTER_NAME    = EARTH
REF_FRAME      = TEME
TIME_SYSTEM    = UTC
MEAN_ELEMENT_THEORY = SGP/SGP4

EPOCH          = 2025-12-20T16:04:38.809632
MEAN_MOTION    = 14.85528461
ECCENTRICITY   = .0019164
INCLINATION    = 82.4995
RA_OF_ASC_NODE = 63.5150
ARG_OF_PERICENTER = 275.1542
MEAN_ANOMALY   = 84.7487

EPHEMERIS_TYPE = 0
CLASSIFICATION_TYPE = U
NORAD_CAT_ID   = 18153
ELEMENT_SET_NO = 999
REV_AT_EPOCH   = 5820
BSTAR          = .38419E-4
MEAN_MOTION_DOT = .357E-5
MEAN_MOTION_DDOT = 0

CCSDS_OMM_VERS = 2.0
CREATION_DATE  = 
ORIGINATOR     = 

OBJECT_NAME    = COSMOS 1867
OBJECT_ID      = 1987-060A
CENTER_NAME    = EARTH
REF_FRAME      = TEME
TIME_SYSTEM    = UTC
MEAN_ELEMENT_THEORY = SGP/SGP4

EPOCH          = 2025-12-20T18:38:32.000064
MEAN_MOTION    = 14.31487316
ECCENTRICITY   = .001368
INCLINATION    = 65.0086
RA_OF_ASC_NODE = 167.6954
ARG_OF_PERICENTER = 271.8498
MEAN_ANOMALY   = 88.1020

EPHEMERIS_TYPE = 0
CLASSIFICATION_TYPE = U
NORAD_CAT_ID   = 18187
ELEMENT_SET_NO = 999
REV_AT_EPOCH   = 864
BSTAR          = .22362E-4
MEAN_MOTION_DOT = -.41E-6
MEAN_MOTION_DDOT = 0

CCSDS_OMM_VERS = 2.0
CREATION_DATE  = 
ORIGINATOR     = 

OBJECT_NAME    = SL-14 R/B
OBJECT_ID      = 1988-001B
CENTER_NAME    = EARTH
REF_FRAME      = TEME
TIME_SYSTEM    = UTC
MEAN_ELEMENT_THEORY = SGP/SGP4

EPOCH          = 2025-12-20T19:04:26.666976
MEAN_MOTION    = 14.85431475
ECCENTRICITY   = .0019125
INCLINATION    = 82.5136
RA_OF_ASC_NODE = 269.5715
ARG_OF_PERICENTER = 135.5673
MEAN_ANOMALY   = 224.7082

EPHEMERIS_TYPE = 0
CLASSIFICATION_TYPE = U
NORAD_CAT_ID   = 18749
ELEMENT_SET_NO = 999
REV_AT_EPOCH   = 3031
BSTAR          = .38403E-4
MEAN_MOTION_DOT = .356E-5
MEAN_MOTION_DDOT = 0

