SL-14 R/B               
1 16792U 86046B   25354.73034632  .00000388  00000+0  41846-4 0  9991
2 16792  82.4816 154.7676 0024322 126.8946 233.4504 14.85492485114682
SL-14 R/B               
1 16882U 86055B   25354.85352068  .00000337  00000+0  36170-4 0  9998
2 16882  82.5197 200.7486 0017733 230.3631 140.0652 14.85537764107663
AJISAI (EGS)            
1 16908U 86061A   25354.84606411 -.00000099  00000+0 -95207-5 0  9991
2 16908  50.0113 335.7910 0011314  86.2215 307.3099 12.44514351458185
COSMOS 1812             
1 17295U 87003A   25354.79262203  .00080138  00000+0  49004-3 0  9991
2 17295  82.4877 283.2880 0006734  73.4140 286.7865 15.77052474131922
SL-14 R/B               
1 17567U 87024B   25354.72504919  .00000364  00000+0  38730-4 0  9990
2 17567  82.5276 166.9529 0018779 157.9683 202.2345 14.86031227 76406
COSMOS 1833             
1 17589U 87027A   25354.78796234  .00000209  00000+0  13756-3 0  9994
2 17589  70.9151 131.8583 0022869 320.4563  39.4888 14.13025386999161
SL-16 R/B               
1 17590U 87027B   25354.63740428  .00000188  00000+0  11716-3 0  9994
2 17590  71.0038  83.0769 0007260 251.2920 108.7416 14.17155332  4140
SL-14 R/B               
1 17912U 87038B   25354.40993845  .00000347  00000+0  37476-4 0  9991
2 17912  82.5012  11.4761 0020792  68.5910 291.7522 14.85267600 67469
COSMOS 1844             
1 17973U 87041A   25354.83576225  .00000239  00000+0  14923-3 0  9999
2 17973  70.8964 200.4951 0029802 144.2841 216.0283 14.14528338992437
SL-14 R/B               
1 18153U 87055B   25354.66989363  .00000357  00000+0  38419-4 0  9995
2 18153  82.4995  63.5150 0019164 275.1542  84.7487 14.85528461 58201
COSMOS 1867             
1 18187U 87060A   25354.77675926 -.00000041  00000+0  22362-4 0  9998
2 18187  65.0086 167.6954 0013680 271.8498  88.1020 14.31487316  8642
SL-14 R/B               
1 18749U 88001B   25354.79475309  .00000356  00000+0  38403-4 0  9994
2 18749  82.5136 269.5715 0019125 135.5673 224.7082 14.85431475 30313
